NORAD_CAT_ID,OBJECT_NAME,OBJECT_TYPE,EPOCH,MEAN_MOTION,ECCENTRICITY,INCLINATION,RA_OF_ASC_NODE,ARG_OF_PERICENTER,MEAN_ANOMALY,BSTAR,MEAN_MOTION_DOT,MEAN_MOTION_DDOT,TLE_LINE0,TLE_LINE1,TLE_LINE2,SEMIMAJOR_AXIS,PERIOD,APOGEE,PERIGEE,DECAYED
55427.0,STARLINK-5073,PAYLOAD,2023-02-28 06:33:07,15.69924201,0.0003604,70.0,12.1504,265.5099,94.5685,6.0026e-06,5.09e-06,0.0,0 STARLINK-5073,1 55427U 23014AN  23059.27300134  .00000509  00000-0  60026-5 0  9995,2 55427  70.0000  12.1504 0003604 265.5099  94.5685 15.69924201  5476,6737.251,91.724,361.544,356.688,0.0
55427.0,STARLINK-5073,PAYLOAD,2023-02-28 21:50:39,15.69900936,0.0002881,70.0001,10.3607,260.543,99.5441,-4.4922e-05,-5.605e-05,0.0,0 STARLINK-5073,1 55427U 23014AN  23059.91018515 -.00005605  00000-0 -44922-4 0  9995,2 55427  70.0001  10.3607 0002881 260.5430  99.5441 15.69900936  5576,6737.317,91.726,361.123,357.241,0.0
55427.0,STARLINK-5073,PAYLOAD,2023-03-01 07:01:10,15.69914491,0.0002879,69.9997,9.2827,252.829,107.2591,1.0468e-05,1.046e-05,0.0,0 STARLINK-5073,1 55427U 23014AN  23060.29248611  .00001046  00000-0  10468-4 0  9991,2 55427  69.9997   9.2827 0002879 252.8290 107.2591 15.69914491  4699,6737.279,91.725,361.083,357.204,0.0
55427.0,STARLINK-5073,PAYLOAD,2023-03-02 02:53:55,15.69958333,0.0003532,69.999,6.9549,253.5486,106.5322,8.8462e-05,0.00010452,0.0,0 STARLINK-5073,1 55427U 23014AN  23061.12078082  .00010452  00000-0  88462-4 0  9997,2 55427  69.9990   6.9549 0003532 253.5486 106.5322 15.69958333  4821,6737.153,91.722,361.398,356.639,0.0
55427.0,STARLINK-5073,PAYLOAD,2023-03-02 19:43:13,15.69919355,0.0002848,69.9991,4.9831,257.6671,102.4206,-2.9232e-05,-3.725e-05,0.0,0 STARLINK-5073,1 55427U 23014AN  23061.82167885 -.00003725  00000-0 -29232-4 0  9991,2 55427  69.9991   4.9831 0002848 257.6671 102.4206 15.69919355  4933,6737.265,91.724,361.048,357.211,0.0
55427.0,STARLINK-5073,PAYLOAD,2023-03-03 07:57:13,15.69939116,0.0002931,69.9993,3.5492,260.3952,99.6912,1.7593e-05,1.905e-05,0.0,0 STARLINK-5073,1 55427U 23014AN  23062.33140439  .00001905  00000-0  17593-4 0  9997,2 55427  69.9993   3.5492 0002931 260.3952  99.6912 15.69939116  5017,6737.208,91.723,361.048,357.099,0.0
55427.0,STARLINK-5073,PAYLOAD,2023-03-04 02:18:15,15.69932143,0.000371,69.9989,1.3995,270.7559,89.3211,8.3497e-05,9.843e-05,0.0,0 STARLINK-5073,1 55427U 23014AN  23063.09601009  .00009843  00000-0  83497-4 0  9991,2 55427  69.9989   1.3995 0003710 270.7559  89.3211 15.69932143  5134,6737.228,91.724,361.593,356.594,0.0
55427.0,STARLINK-5073,PAYLOAD,2023-03-04 08:25:15,15.69932912,0.0003377,69.9989,0.6823,270.1416,89.9393,5.5537e-05,6.473e-05,0.0,0 STARLINK-5073,1 55427U 23014AN  23063.35087298  .00006473  00000-0  55537-4 0  9998,2 55427  69.9989   0.6823 0003377 270.1416  89.9393 15.69932912  6111,6737.226,91.724,361.366,356.816,0.0
55427.0,STARLINK-5073,PAYLOAD,2023-03-04 19:07:32,15.69908763,0.0003387,69.9998,359.4295,267.6865,92.3943,-1.1209e-05,-1.559e-05,0.0,0 STARLINK-5073,1 55427U 23014AN  23063.79690153 -.00001559  00000-0 -11209-4 0  9996,2 55427  69.9998 359.4295 0003387 267.6865  92.3943 15.69908763  5248,6737.295,91.725,361.442,356.878,0.0
55427.0,STARLINK-5073,PAYLOAD,2023-03-04 22:11:02,15.69915148,0.0003046,69.9984,359.069,261.7381,98.347,1.2711e-05,1.315e-05,0.0,0 STARLINK-5073,1 55427U 23014AN  23063.92433251  .00001315  00000-0  12711-4 0  9992,2 55427  69.9984 359.0690 0003046 261.7381  98.3470 15.69915148  5266,6737.277,91.725,361.194,357.09,0.0
55427.0,STARLINK-5073,PAYLOAD,2023-03-05 05:49:47,15.69940072,0.0003148,69.9994,358.1743,263.3995,96.6843,0.00014583,0.00017369,0.0,0 STARLINK-5073,1 55427U 23014AN  23064.24291323  .00017369  00000-0  14583-3 0  9994,2 55427  69.9994 358.1743 0003148 263.3995  96.6843 15.69940072  5313,6737.205,91.723,361.191,356.95,0.0
55427.0,STARLINK-5073,PAYLOAD,2023-03-05 22:39:03,15.6993431,0.0003685,70.0007,356.2055,245.7473,114.3338,4.4666e-05,5.164e-05,0.0,0 STARLINK-5073,1 55427U 23014AN  23064.94379434  .00005164  00000-0  44666-4 0  9997,2 55427  70.0007 356.2055 0003685 245.7473 114.3338 15.69934310  6368,6737.222,91.724,361.57,356.604,0.0
55427.0,STARLINK-5073,PAYLOAD,2023-03-06 01:42:34,15.69935064,0.000341,70.0008,355.8469,258.7683,101.3129,5.1568e-05,5.995e-05,0.0,0 STARLINK-5073,1 55427U 23014AN  23065.07122850  .00005995  00000-0  51568-4 0  9991,2 55427  70.0008 355.8469 0003410 258.7683 101.3129 15.69935064  5445,6737.22,91.724,361.382,356.787,0.0
55427.0,STARLINK-5073,PAYLOAD,2023-03-06 18:31:51,15.69918326,0.0003095,69.9996,353.8745,255.1717,104.9135,5.6819e-06,4.7e-06,0.0,0 STARLINK-5073,1 55427U 23014AN  23065.77212056  .00000470  00000-0  56819-5 0  9994,2 55427  69.9996 353.8745 0003095 255.1717 104.9135 15.69918326  5551,6737.268,91.725,361.218,357.047,0.0
55427.0,STARLINK-5073,PAYLOAD,2023-03-07 05:14:06,15.69956964,0.000395,70.0003,352.6215,265.1819,94.8925,0.0001626,0.00019412,0.0,0 STARLINK-5073,1 55427U 23014AN  23066.21812711  .00019412  00000-0  16260-3 0  9998,2 55427  70.0003 352.6215 0003950 265.1819  94.8925 15.69956964  5628,6737.157,91.722,361.683,356.361,0.0
55427.0,STARLINK-5073,PAYLOAD,2023-03-07 06:45:51,15.69948259,0.0003354,70.0012,352.4412,265.9542,94.1271,0.00013864,0.00016507,0.0,0 STARLINK-5073,1 55427U 23014AN  23066.28184770  .00016507  00000-0  13864-3 0  9991,2 55427  70.0012 352.4412 0003354 265.9542  94.1271 15.69948259  5630,6737.182,91.723,361.307,356.787,0.0
55427.0,STARLINK-5073,PAYLOAD,2023-03-07 18:59:52,15.69932143,0.0003109,69.9992,351.0083,265.3438,94.7402,6.2474e-05,7.308e-05,0.0,0 STARLINK-5073,1 55427U 23014AN  23066.79158285  .00007308  00000-0  62474-4 0  9990,2 55427  69.9992 351.0083 0003109 265.3438  94.7402 15.69932143  5715,6737.228,91.724,361.188,356.999,0.0
55427.0,STARLINK-5073,PAYLOAD,2023-03-08 04:10:23,15.69920449,0.0003018,69.9998,349.9345,272.6663,87.4187,-4.1203e-05,-5.163e-05,0.0,0 STARLINK-5073,1 55427U 23014AN  23067.17388387 -.00005163  00000-0 -41203-4 0  9997,2 55427  69.9998 349.9345 0003018 272.6663  87.4187 15.69920449  5779,6737.262,91.724,361.16,357.093,0.0
55427.0,STARLINK-5073,PAYLOAD,2023-03-09 19:55:56,15.69928164,0.0003516,69.9994,345.276,265.5852,94.4942,0.00016949,0.0002022,0.0,0 STARLINK-5073,1 55427U 23014AN  23068.83051730  .00020220  00000-0  16949-3 0  9997,2 55427  69.9994 345.2760 0003516 265.5852  94.4942 15.69928164  6038,6737.24,91.724,361.473,356.736,0.0
55427.0,STARLINK-5073,PAYLOAD,2023-03-09 21:27:41,15.69930919,0.000354,69.9997,345.0969,265.9833,94.0958,0.0001799,0.00021481,0.0,0 STARLINK-5073,1 55427U 23014AN  23068.89423393  .00021481  00000-0  17990-3 0  9998,2 55427  69.9997 345.0969 0003540 265.9833  94.0958 15.69930919  6988,6737.232,91.724,361.482,356.712,0.0
55427.0,STARLINK-5073,PAYLOAD,2023-03-10 03:34:42,15.69915917,0.0002548,70.0004,344.3809,273.089,87.0014,-7.2611e-05,-8.93e-05,0.0,0 STARLINK-5073,1 55427U 23014AN  23069.14910379 -.00008930  00000-0 -72611-4 0  9990,2 55427  70.0004 344.3809 0002548 273.0890  87.0014 15.69915917  6082,6737.275,91.725,360.856,357.423,0.0
55427.0,STARLINK-5073,PAYLOAD,2023-03-10 17:20:28,15.69922869,0.0003078,69.9986,342.768,270.408,89.6763,0.00015396,0.00018338,0.0,0 STARLINK-5073,1 55427U 23014AN  23069.72255730  .00018338  00000-0  15396-3 0  9994,2 55427  69.9986 342.7680 0003078 270.4080  89.6763 15.69922869  6171,6737.255,91.724,361.193,357.046,0.0
55427.0,STARLINK-5073,PAYLOAD,2023-03-10 20:23:59,15.69912699,0.0003366,69.9987,342.4091,271.5695,88.5115,9.5552e-05,0.00011287,0.0,0 STARLINK-5073,1 55427U 23014AN  23069.84999250  .00011287  00000-0  95552-4 0  9998,2 55427  69.9987 342.4091 0003366 271.5695  88.5115 15.69912699  7135,6737.284,91.725,361.417,356.881,0.0
55427.0,STARLINK-5073,PAYLOAD,2023-03-11 02:30:59,15.69941148,0.0003237,69.9993,341.6928,270.048,90.0345,0.0001658,0.00019784,0.0,0 STARLINK-5073,1 55427U 23014AN  23070.10485507  .00019784  00000-0  16580-3 0  9997,2 55427  69.9993 341.6928 0003237 270.0480  90.0345 15.69941148  7173,6737.202,91.723,361.248,356.887,0.0
55427.0,STARLINK-5073,PAYLOAD,2023-03-11 17:48:30,15.69934997,0.0003691,69.998,339.9007,264.7721,95.3054,8.1413e-05,9.592e-05,0.0,0 STARLINK-5073,1 55427U 23014AN  23070.74202089  .00009592  00000-0  81413-4 0  9993,2 55427  69.9980 339.9007 0003691 264.7721  95.3054 15.69934997  6335,6737.22,91.724,361.572,356.598,0.0
55427.0,STARLINK-5073,PAYLOAD,2023-03-12 02:59:00,15.69946114,0.0003617,69.9984,338.826,255.4892,104.5903,9.1652e-05,0.00010832,0.0,0 STARLINK-5073,1 55427U 23014AN  23071.12431653  .00010832  00000-0  91652-4 0  9992,2 55427  69.9984 338.8260 0003617 255.4892 104.5903 15.69946114  7333,6737.188,91.723,361.49,356.616,0.0
55427.0,STARLINK-5073,PAYLOAD,2023-03-12 16:44:46,15.69950539,0.0003314,69.9993,337.2139,247.4354,112.6491,9.5111e-05,0.00011251,0.0,0 STARLINK-5073,1 55427U 23014AN  23071.69776131  .00011251  00000-0  95111-4 0  9997,2 55427  69.9993 337.2139 0003314 247.4354 112.6491 15.69950539  7427,6737.176,91.723,361.273,356.808,0.0
55427.0,STARLINK-5073,PAYLOAD,2023-03-13 03:27:02,15.69951025,0.000382,69.9976,335.9591,288.6278,71.4502,6.5261e-05,7.651e-05,0.0,0 STARLINK-5073,1 55427U 23014AN  23072.14377496  .00007651  00000-0  65261-4 0  9991,2 55427  69.9976 335.9591 0003820 288.6278  71.4502 15.69951025  6558,6737.174,91.723,361.613,356.466,0.0
55427.0,STARLINK-5073,PAYLOAD,2023-03-14 02:23:20,15.69917554,0.0003487,69.998,333.2717,290.5563,69.5258,1.1569e-05,1.178e-05,0.0,0 STARLINK-5073,1 55427U 23014AN  23073.09953764  .00001178  00000-0  11569-4 0  9994,2 55427  69.9980 333.2717 0003487 290.5563  69.5258 15.69917554  6704,6737.27,91.725,361.484,356.786,0.0
55427.0,STARLINK-5073,PAYLOAD,2023-03-15 02:51:21,15.69915974,0.0003786,69.9982,330.4052,282.9364,77.1409,-8.9382e-06,-1.287e-05,0.0,0 STARLINK-5073,1 55427U 23014AN  23074.11900077 -.00001287  00000-0 -89382-5 0  9999,2 55427  69.9982 330.4052 0003786 282.9364  77.1409 15.69915974  6867,6737.274,91.725,361.69,356.589,0.0
